POPACS 2                
1 39269U 13055E   26068.50954283  .00029878  00000+0  51935-3 0  9990
2 39269  80.9893 258.0384 0430745 153.4128 208.9906 14.87802959648370
STARLINK-6081           
1 56108U 23046R   26067.63522089  .00018168  00000+0  13507-2 0  9992
2 56108  43.0031 164.6545 0000578 245.9294 114.1488 15.02697277161909
